UNKNOWN                 
1 89484U          25104.32452595  .00008080  00000+0  18730-1 0  9995
2 89484  84.2782 220.8989 2755306 339.4577  11.3795  9.01581538333498
UNKNOWN                 
1 89490U          25103.85314074  .00415731  00000+0  23924-1 0  9994
2 89490  98.4095  65.3786 0046602 131.1596 229.3665 15.09562388446976
UNKNOWN                 
1 89493U          25103.62466451  .00004551  00000+0  23099-2 0  9997
2 89493  99.0373 169.3045 0081555   9.7172 350.5555 14.14743598429553
UNKNOWN                 
1 89494U          25107.62866243  .00004091  00000+0  20796-2 0  9995
2 89494  99.0342 173.2717 0082014 358.4291   1.6612 14.14714893429977
